[{"OBJECT_NAME":"ITASAT","OBJECT_ID":"2018-099AE","EPOCH":"2026-03-09T09:05:41.837280","MEAN_MOTION":15.17669542,"ECCENTRICITY":0.00122662,"INCLINATION":97.4161,"RA_OF_ASC_NODE":121.9137,"ARG_OF_PERICENTER":347.5066,"MEAN_ANOMALY":12.5862,"EPHEMERIS_TYPE":0,"CLASSIFICATION_TYPE":"U","NORAD_CAT_ID":43786,"ELEMENT_SET_NO":999,"REV_AT_EPOCH":39776,"BSTAR":0.00041167934,"MEAN_MOTION_DOT":8.243e-5,"MEAN_MOTION_DDOT":0},{"OBJECT_NAME":"TOMORROW-S5","OBJECT_ID":"2025-052AA","EPOCH":"2026-03-09T22:18:56.653632","MEAN_MOTION":15.21504663,"ECCENTRICITY":0.0008039,"INCLINATION":97.4097,"RA_OF_ASC_NODE":323.1718,"ARG_OF_PERICENTER":130.4519,"MEAN_ANOMALY":229.7419,"EPHEMERIS_TYPE":0,"CLASSIFICATION_TYPE":"U","NORAD_CAT_ID":63234,"ELEMENT_SET_NO":999,"REV_AT_EPOCH":5474,"BSTAR":0.00063877552,"MEAN_MOTION_DOT":0.00014334,"MEAN_MOTION_DDOT":0}]
